NORAD_CAT_ID,OBJECT_NAME,OBJECT_TYPE,EPOCH,MEAN_MOTION,ECCENTRICITY,INCLINATION,RA_OF_ASC_NODE,ARG_OF_PERICENTER,MEAN_ANOMALY,BSTAR,MEAN_MOTION_DOT,MEAN_MOTION_DDOT,TLE_LINE0,TLE_LINE1,TLE_LINE2,SEMIMAJOR_AXIS,PERIOD,APOGEE,PERIGEE,DECAYED
55667.0,STARLINK-5456,PAYLOAD,2023-05-31 07:22:17,15.69898916,0.0003448,69.9983,221.6358,265.7806,94.2996,4.7403e-05,5.485e-05,0.0,0 STARLINK-5456,1 55667U 23021AR  23151.30714136  .00005485  00000-0  47403-4 0  9998,2 55667  69.9983 221.6358 0003448 265.7806  94.2996 15.69898916 16632,6737.323,91.726,361.511,356.865,0.0
55667.0,STARLINK-5456,PAYLOAD,2023-05-31 13:29:16,15.69919425,0.0003137,69.9985,220.9187,264.0493,96.0345,2.144e-05,2.365e-05,0.0,0 STARLINK-5456,1 55667U 23021AR  23151.56199983  .00002365  00000-0  21440-4 0  9990,2 55667  69.9985 220.9187 0003137 264.0493  96.0345 15.69919425 16980,6737.265,91.724,361.243,357.016,0.0
55667.0,STARLINK-5456,PAYLOAD,2023-05-31 15:01:01,15.6992014,0.0003053,69.9982,220.74,265.3834,94.7013,1.4088e-05,1.481e-05,0.0,0 STARLINK-5456,1 55667U 23021AR  23151.62571732  .00001481  00000-0  14088-4 0  9991,2 55667  69.9982 220.7400 0003053 265.3834  94.7013 15.69920140 16683,6737.262,91.724,361.184,357.071,0.0
55667.0,STARLINK-5456,PAYLOAD,2023-06-01 07:50:18,15.69925367,0.0003227,69.9979,218.7695,261.1695,98.9136,8.3547e-06,7.92e-06,0.0,0 STARLINK-5456,1 55667U 23021AR  23152.32659863  .00000792  00000-0  83547-5 0  9992,2 55667  69.9979 218.7695 0003227 261.1695  98.9136 15.69925367 17100,6737.248,91.724,361.287,356.938,0.0
55667.0,STARLINK-5456,PAYLOAD,2023-06-01 21:36:04,15.6993287,0.0003353,69.9974,217.1563,259.8232,100.2585,-8.7864e-06,-1.27e-05,0.0,0 STARLINK-5456,1 55667U 23021AR  23152.90004669 -.00001270  00000-0 -87864-5 0  9994,2 55667  69.9974 217.1563 0003353 259.8232 100.2585 15.69932870 16889,6737.226,91.724,361.35,356.832,0.0
55667.0,STARLINK-5456,PAYLOAD,2023-06-02 06:46:35,15.69920454,0.0003251,69.9977,216.0822,263.2277,96.8549,1.6224e-05,1.738e-05,0.0,0 STARLINK-5456,1 55667U 23021AR  23153.28235130  .00001738  00000-0  16224-4 0  9993,2 55667  69.9977 216.0822 0003251 263.2277  96.8549 15.69920454 16945,6737.262,91.724,361.317,356.936,0.0
55667.0,STARLINK-5456,PAYLOAD,2023-06-02 12:53:35,15.69921852,0.0003262,69.9978,215.3659,261.7618,98.3208,7.6187e-06,7.03e-06,0.0,0 STARLINK-5456,1 55667U 23021AR  23153.53721931  .00000703  00000-0  76187-5 0  9996,2 55667  69.9978 215.3659 0003262 261.7618  98.3208 15.69921852 17291,6737.258,91.724,361.32,356.925,0.0
55667.0,STARLINK-5456,PAYLOAD,2023-06-02 14:25:20,15.69920315,0.0003273,69.9975,215.1864,262.2012,97.8813,5.5334e-06,4.53e-06,0.0,0 STARLINK-5456,1 55667U 23021AR  23153.60093738  .00000453  00000-0  55334-5 0  9994,2 55667  69.9975 215.1864 0003273 262.2012  97.8813 15.69920315 17301,6737.262,91.724,361.332,356.922,0.0
55667.0,STARLINK-5456,PAYLOAD,2023-06-03 07:14:37,15.69921519,0.0003367,69.9973,213.2164,261.2939,98.7875,3.0287e-06,1.51e-06,0.0,0 STARLINK-5456,1 55667U 23021AR  23154.30182186  .00000151  00000-0  30287-5 0  9993,2 55667  69.9973 213.2164 0003367 261.2939  98.7875 15.69921519 17105,6737.259,91.724,361.392,356.855,0.0
55667.0,STARLINK-5456,PAYLOAD,2023-06-03 13:21:38,15.69917714,0.000343,69.9976,212.5003,261.0468,99.0339,-2.6745e-06,-5.34e-06,0.0,0 STARLINK-5456,1 55667U 23021AR  23154.55669250 -.00000534  00000-0 -26745-5 0  9993,2 55667  69.9976 212.5003 0003430 261.0468  99.0339 15.69917714 17457,6737.269,91.725,361.445,356.824,0.0
55667.0,STARLINK-5456,PAYLOAD,2023-06-04 13:49:41,15.69902733,0.0003718,69.9971,209.6336,265.1654,94.9117,-1.961e-05,-2.568e-05,0.0,0 STARLINK-5456,1 55667U 23021AR  23155.57617017 -.00002568  00000-0 -19610-4 0  9991,2 55667  69.9971 209.6336 0003718 265.1654  94.9117 15.69902733 17610,6737.312,91.725,361.682,356.672,0.0
55667.0,STARLINK-5456,PAYLOAD,2023-06-05 05:07:10,15.69930301,0.0003049,69.9972,207.8435,244.4523,115.6358,2.1964e-05,2.43e-05,0.0,0 STARLINK-5456,1 55667U 23021AR  23156.21331541  .00002430  00000-0  21964-4 0  9999,2 55667  69.9972 207.8435 0003049 244.4523 115.6358 15.69930301 17400,6737.233,91.724,361.153,357.044,0.0
55667.0,STARLINK-5456,PAYLOAD,2023-06-05 12:45:56,15.6992679,0.0003112,69.9984,206.9475,247.5286,112.558,3.5291e-05,4.033e-05,0.0,0 STARLINK-5456,1 55667U 23021AR  23156.53189827  .00004033  00000-0  35291-4 0  9991,2 55667  69.9984 206.9475 0003112 247.5286 112.5580 15.69926790 17767,6737.243,91.724,361.205,357.012,0.0
55667.0,STARLINK-5456,PAYLOAD,2023-06-06 02:31:42,15.69924363,0.0003511,69.9974,205.3345,261.5287,98.551,-4.5276e-06,-7.57e-06,0.0,0 STARLINK-5456,1 55667U 23021AR  23157.10535697 -.00000757  00000-0 -45276-5 0  9991,2 55667  69.9974 205.3345 0003511 261.5287  98.5510 15.69924363 17541,6737.25,91.724,361.481,356.75,0.0
55667.0,STARLINK-5456,PAYLOAD,2023-06-06 11:42:13,15.69931073,0.0003371,69.9976,204.2595,259.7486,100.333,4.7938e-06,3.64e-06,0.0,0 STARLINK-5456,1 55667U 23021AR  23157.48765067  .00000364  00000-0  47938-5 0  9997,2 55667  69.9976 204.2595 0003371 259.7486 100.3330 15.69931073 17911,6737.231,91.724,361.367,356.825,0.0
55667.0,STARLINK-5456,PAYLOAD,2023-06-06 13:13:58,15.69928393,0.0003298,69.9977,204.0804,255.7802,104.3028,5.3413e-06,4.3e-06,0.0,0 STARLINK-5456,1 55667U 23021AR  23157.55136916  .00000430  00000-0  53413-5 0  9999,2 55667  69.9977 204.0804 0003298 255.7802 104.3028 15.69928393 17929,6737.239,91.724,361.326,356.882,0.0
55667.0,STARLINK-5456,PAYLOAD,2023-06-07 02:59:44,15.69929274,0.00032,69.9991,202.4693,264.3231,95.76,-2.2324e-06,-4.81e-06,0.0,0 STARLINK-5456,1 55667U 23021AR  23158.12482282 -.00000481  00000-0 -22324-5 0  9998,2 55667  69.9991 202.4693 0003200 264.3231  95.7600 15.69929274 17702,6737.236,91.724,361.257,356.945,0.0
55667.0,STARLINK-5456,PAYLOAD,2023-06-07 06:03:14,15.69929238,0.0003284,69.9985,202.1109,264.9076,95.1745,-4.0377e-06,-6.98e-06,0.0,0 STARLINK-5456,1 55667U 23021AR  23158.25225614 -.00000698  00000-0 -40377-5 0  9994,2 55667  69.9985 202.1109 0003284 264.9076  95.1745 15.69929238 18030,6737.236,91.724,361.314,356.889,0.0
55667.0,STARLINK-5456,PAYLOAD,2023-06-07 19:49:01,15.69921294,0.0003488,69.9975,200.4982,267.9516,92.1281,1.2536e-05,1.295e-05,0.0,0 STARLINK-5456,1 55667U 23021AR  23158.82570650  .00001295  00000-0  12536-4 0  9997,2 55667  69.9975 200.4982 0003488 267.9516  92.1281 15.69921294 18123,6737.259,91.724,361.474,356.774,0.0
55667.0,STARLINK-5456,PAYLOAD,2023-06-08 04:59:32,15.69913715,0.0003715,69.9974,199.4231,276.6288,83.4484,1.1584e-06,-7.4e-07,0.0,0 STARLINK-5456,1 55667U 23021AR  23159.20801465 -.00000074  00000-0  11584-5 0  9999,2 55667  69.9974 199.4231 0003715 276.6288  83.4484 15.69913715 17870,6737.281,91.725,361.649,356.643,0.0
55667.0,STARLINK-5456,PAYLOAD,2023-06-08 12:38:17,15.69924596,0.000306,69.997,198.5267,257.6532,102.4322,5.7793e-06,4.82e-06,0.0,0 STARLINK-5456,1 55667U 23021AR  23159.52658980  .00000482  00000-0  57793-5 0  9990,2 55667  69.9970 198.5267 0003060 257.6532 102.4322 15.69924596 18232,6737.25,91.724,361.176,357.053,0.0
55667.0,STARLINK-5456,PAYLOAD,2023-06-09 02:24:04,15.69908801,0.0002786,69.9991,196.9158,270.5085,89.5791,-4.6398e-06,-7.7e-06,0.0,0 STARLINK-5456,1 55667U 23021AR  23160.10005704 -.00000770  00000-0 -46398-5 0  9997,2 55667  69.9991 196.9158 0002786 270.5085  89.5791 15.69908801 18019,6737.295,91.725,361.037,357.283,0.0
55667.0,STARLINK-5456,PAYLOAD,2023-06-09 10:02:51,15.69902777,0.0003134,69.9972,196.0169,257.3128,102.7717,-1.1454e-05,-1.588e-05,0.0,0 STARLINK-5456,1 55667U 23021AR  23160.41864777 -.00001588  00000-0 -11454-4 0  9996,2 55667  69.9972 196.0169 0003134 257.3128 102.7717 15.69902777 18371,6737.312,91.725,361.289,357.066,0.0
55667.0,STARLINK-5456,PAYLOAD,2023-06-09 11:34:35,15.69910686,0.0003098,69.9972,195.8395,262.6419,97.4425,-1.0344e-05,-1.455e-05,0.0,0 STARLINK-5456,1 55667U 23021AR  23160.48235986 -.00001455  00000-0 -10344-4 0  9997,2 55667  69.9972 195.8395 0003098 262.6419  97.4425 15.69910686 18385,6737.29,91.725,361.242,357.067,0.0
55667.0,STARLINK-5456,PAYLOAD,2023-06-10 01:20:20,15.69927012,0.0004136,69.9947,194.2263,268.2517,91.8205,2.835e-05,3.198e-05,0.0,0 STARLINK-5456,1 55667U 23021AR  23161.05578997  .00003198  00000-0  28350-4 0  9993,2 55667  69.9947 194.2263 0004136 268.2517  91.8205 15.69927012 18160,6737.243,91.724,361.894,356.321,0.0
55667.0,STARLINK-5456,PAYLOAD,2023-06-10 08:59:05,15.69938476,0.0002171,69.9996,193.3339,243.7671,116.3302,3.7285e-05,4.275e-05,0.0,0 STARLINK-5456,1 55667U 23021AR  23161.37436454  .00004275  00000-0  37285-4 0  9993,2 55667  69.9996 193.3339 0002171 243.7671 116.3302 15.69938476 18217,6737.21,91.723,360.538,357.612,0.0
55667.0,STARLINK-5456,PAYLOAD,2023-06-10 12:02:37,15.69911708,0.0003091,69.9977,192.9737,269.0891,90.9951,7.8692e-07,-1.18e-06,0.0,0 STARLINK-5456,1 55667U 23021AR  23161.50182191 -.00000118  00000-0  78692-6 0  9996,2 55667  69.9977 192.9737 0003091 269.0891  90.9951 15.69911708 18238,6737.287,91.725,361.234,357.069,0.0
55667.0,STARLINK-5456,PAYLOAD,2023-06-11 01:48:22,15.69914673,0.0003289,69.9965,191.3597,269.0991,90.9828,2.6017e-05,2.915e-05,0.0,0 STARLINK-5456,1 55667U 23021AR  23162.07526617  .00002915  00000-0  26017-4 0  9992,2 55667  69.9965 191.3597 0003289 269.0991  90.9828 15.69914673 18329,6737.278,91.725,361.359,356.927,0.0
55667.0,STARLINK-5456,PAYLOAD,2023-06-11 04:51:53,15.69918248,0.0003243,69.9968,191.0017,268.6355,91.4469,2.9149e-05,3.293e-05,0.0,0 STARLINK-5456,1 55667U 23021AR  23162.20269786  .00003293  00000-0  29149-4 0  9997,2 55667  69.9968 191.0017 0003243 268.6355  91.4469 15.69918248 18650,6737.268,91.725,361.318,356.948,0.0
55667.0,STARLINK-5456,PAYLOAD,2023-06-11 10:58:53,15.69916083,0.0003159,69.9976,190.2861,268.9713,91.1121,2.8413e-05,3.204e-05,0.0,0 STARLINK-5456,1 55667U 23021AR  23162.45756727  .00003204  00000-0  28413-4 0  9995,2 55667  69.9976 190.2861 0003159 268.9713  91.1121 15.69916083 18695,6737.274,91.725,361.267,357.011,0.0
